ONEWEB-0361             
1 49287U 21090J   23280.82571692  .00000099  00000+0  21169-3 0  9996
2 49287  87.9146 110.2289 0001732  91.4808 268.6524 13.20772979101320
ONEWEB-0362             
1 49288U 21090K   23280.60597192 -.00000010  00000+0 -56633-4 0  9996
2 49288  87.9215 140.7546 0001725  66.2033 293.9280 13.19724063 97181
ONEWEB-0363             
1 49289U 21090L   23280.53951366  .00000067  00000+0  13210-3 0  9999
2 49289  87.9144 110.2830 0001716 101.9917 258.1408 13.20771673100461
ONEWEB-0364             
1 49290U 21090M   23280.57740595  .00000111  00000+0  24010-3 0  9995
2 49290  87.9155 110.2888 0001923  85.5761 274.5592 13.20772091101600
ONEWEB-0365             
1 49291U 21090N   23280.84289155 -.00000067  00000+0 -19958-3 0  9993
2 49291  87.9216 140.6960 0001705  74.6407 285.4913 13.19728519 98013
ONEWEB-0366             
1 49292U 21090P   23280.84214249 -.00000073  00000+0 -23068-3 0  9990
2 49292  87.8958 125.4706 0001925  83.9167 276.2182 13.14501313 99670
ONEWEB-0367             
1 49293U 21090Q   23280.53740794  .00000167  00000+0  37788-3 0  9992
2 49293  87.9141 110.2777 0002016  86.2356 273.9007 13.20773708 99984
ONEWEB-0368             
1 49294U 21090R   23280.58581895  .00000136  00000+0  30135-3 0  9998
2 49294  87.9154 110.2872 0002564  97.2299 262.9126 13.20772671101141
